#dP2025  1  5  6  0  0.00000000      96 __u+U IGS20 EXT  IAC
## 2348  21600.00000000   900.00000000 60680 0.2500000000000
+   53   G01G02G03G04G05G06G07G08G09G10G11G12G13G14G15G16G17
+        G18G19G20G21G22G23G24G25G26G27G28G29G30G31G32R01R02
+        R03R04R05R07R08R09R11R12R14R15R16R17R18R19R20R21R22
+        R24R26  0  0  0  0  0  0  0  0  0  0  0  0  0  0  0
+          0  0  0  0  0  0  0  0  0  0  0  0  0  0  0  0  0
++        10  7  8  7  7  7  8  8  8  7  6  6  7  7  7  7  7
++         6  8  7  7  6  7  7  7  8  6  8  9  7  8  9  9  9
++         7  8  8  9  8  7  7  8  9  8  8  7  6  8  7  7  8
++         8  8  0  0  0  0  0  0  0  0  0  0  0  0  0  0  0
++         0  0  0  0  0  0  0  0  0  0  0  0  0  0  0  0  0
%c M  cc GPS ccc cccc cccc cccc cccc ccccc ccccc ccccc ccccc
%c cc cc ccc ccc cccc cccc cccc cccc ccccc ccccc ccccc ccccc
%f  0.0000000  0.000000000  0.00000000000  0.000000000000000
%f  0.0000000  0.000000000  0.00000000000  0.000000000000000
%i    0    0    0    0      0      0      0      0         0
%i    0    0    0    0      0      0      0      0         0
/* IAC                                ULTRA-RAPID PREDICTION
/* S/V CLOCKS ARE ALIGNED TO GNSS TIME                      
/* G:C1WC2W R:C1PC2P E:C1XC5X C:C2IC6I J:C1CC2S             
/* PCV:IGS20_2317 OL/AL:FES2004  NONE     YN ORB:CoN CLK:CoN
*  2025 01 05  8  0  0.00000000
PG01 -15530.830896  21348.660021  -2896.948970     21.906037
PG02 -14217.516106  22169.506011   1109.855731   -275.323715
PG03 -10933.861115  12600.525444 -20801.205692    639.869099
PG04  -3343.539311  20932.854716 -15887.620704    507.124539
PG05  23526.196199  -5961.753910  10693.208288   -198.112755
PG06  13897.750259   5475.954069 -21901.865498    -96.293535
PG07  -2133.994821  21705.380720  15380.356937    -13.867980
PG08 -11148.069502  11402.661633  21044.712650    454.345543
PG09   4830.001597  24545.261068  -8917.714891    516.302885
PG10 -21355.071494 -10510.753298  12366.006730   -263.665231
PG11  19722.722810  -6446.259447 -16504.411530   -752.354763
PG12  14671.926167 -11193.562875 -19376.865868   -562.630085
PG13  14843.841378  -1863.949180  21725.518985    692.455730
PG14  18180.575684  12941.884326  14627.153294    574.053799
PG15   9164.753128 -13412.414545  20471.060073    247.975556
PG16 -26002.956657   -658.421634   6083.824641    -85.578603
PG17  12957.625645  22075.607637  -6256.307009    488.357504
PG18   1036.096526 -20418.740221  16861.033343   -658.865231
PG19  16112.172866  14894.101119 -15407.547138    582.463506
PG20  26423.073808  -1001.405575  -1474.787167    367.316540
PG21 -16919.610972  18380.506360   7499.103955    100.046695
PG22  22887.567301  10454.493900   8376.590167    -90.602637
PG23  -8121.728539 -14541.246786  20787.819118    397.712066
PG24  14414.142019 -21909.131208   2002.676934   -467.114285
PG25     26.647740 -15681.847149 -21805.137990    497.199251
PG26 -25910.786199  -4374.750903  -5290.809758    -35.877807
PG27 -16411.945557  -1051.614339  20635.839838    -33.443473
PG28 -13249.059435  -7541.802308 -21764.872666   -527.373594
PG29  -2752.500600 -24955.423971  -8520.441526   -549.883349
PG30   8334.684758  14553.634845  20697.203181   -246.007422
PG31 -18586.083482   1910.737348 -19258.155763   -218.547757
PG32 -16126.409294 -18667.149460  -9885.884286   -547.177775
PR01 -16172.925936  -2786.011035 -19521.906975    110.181274
PR02  -4062.828875  10917.392995 -22636.796447    -38.698355
PR03  10648.002871  19342.659796 -12666.526773    114.439919
PR04  18644.103480  16979.572546   3803.615775    271.288236
PR05  16885.456824   5567.354222  18290.348692    143.276803
PR07 -10866.715051 -19476.040871  12474.986610     98.287119
PR08 -18859.891120 -16742.679478  -3910.435752     -6.265153
PR09  17038.483289 -12462.973469 -14366.238050    230.287727
PR11 -15785.592594  -5280.821448 -19316.636127      1.372657
PR12 -24838.657710   5204.882404  -2629.096200     49.255501
PR14    -79.164838  11502.945598  22769.652384     27.554724
PR15  17280.427855   4553.013273  18215.930066     72.492102
PR16  24831.026404  -5200.539756   2825.541841     32.216557
PR17  -1818.723708  23341.595952 -10158.301513    154.747417
PR18   6528.240712  12109.257609 -21446.304894    180.375646
PR19  11607.172719  -2850.635610 -22527.625237   -304.430654
PR20  11161.295366 -21386.283852  -8339.711261   -124.189650
PR21   2700.078535 -23672.955819   9081.940673   -165.528024
PR22  -7245.045955 -11213.133272  21769.411090    -54.331685
PR24 -10117.194315  22073.467265   7861.348684    -86.906741
PR26 -18511.828708 -17416.564894  -2024.443633   -132.105659
*  2025 01 05  8 15  0.00000000
PG01 -15838.415626  21320.057290    -49.662148     21.936918
PG02 -14330.960147  21827.661034   3980.595055   -275.315539
PG03 -13196.020961  12349.860775 -19584.829511    639.876157
PG04  -4273.091962  19233.662500 -17719.227597    507.129907
PG05  24615.428226  -5742.316540   8092.801819   -198.113697
PG06  12454.597896   7551.018574 -22140.037932    -96.318142
PG07  -3204.100119  22881.915980  13226.771700    -13.867348
PG08 -12365.576797   9255.592808  21453.111283    454.352888
PG09   4094.908192  23625.543357 -11444.478177    516.316727
PG10 -19854.932747 -10514.867304  14661.137667   -263.679676
PG11  18651.186532  -4755.839651 -18234.281843   -752.354197
PG12  16713.012038 -10776.668833 -17875.756221   -562.632053
PG13  15583.702536    530.678502  21302.331934    692.456904
PG14  16397.692596  12972.974932  16562.220283    574.060395
PG15  10649.551566 -11413.253803  20959.668836    247.979645
PG16 -26533.192672   -966.578517   3322.414771    -85.570136
PG17  12953.552722  22732.437427  -3450.885540    488.342228
PG18   2212.383249 -21810.904440  14863.679295   -658.864237
PG19  16516.600045  16452.677393 -13260.507068    582.467674
PG20  26113.832686   -689.723639  -4304.524263    367.316286
PG21 -16711.740615  17360.567325  10165.969698    100.048051
PG22  21796.187282  10527.305755  10949.752298    -90.604523
PG23  -5716.149870 -14478.923278  21597.368207    397.718873
PG24  14522.933745 -21344.727343   4790.814897   -467.110899
PG25   2442.277951 -15544.666124 -21742.157874    497.198786
PG26 -25185.470773  -4681.313288  -7924.747051    -35.891242
PG27 -17395.402430  -3195.047735  19638.714104    -33.443038
PG28 -11918.763138  -9639.329837 -21705.735066   -527.382537
PG29  -2138.179198 -23995.514915 -11091.804860   -549.880319
PG30   6957.122493  16398.979048  19775.314201   -245.999891
PG31 -17382.066366     50.023295 -20424.220024   -218.547018
PG32 -16381.958961 -19662.202071  -7266.652449   -547.171772
PR01 -17935.781437  -4255.529676 -17624.367628    110.182485
PR02  -6073.534786   8920.103730 -23062.894547    -38.698128
PR03   9485.630884  18050.688283 -15233.164290    114.440609
PR04  18963.245897  17035.870438    587.153897    271.289716
PR05  18484.794303   6970.905502  16131.980438    143.277304
PR07  -9744.248715 -18204.346629  15058.765799     98.287758
PR08 -19189.053215 -16822.585220   -707.189326     -6.265555
PR09  18542.829620 -13042.973974 -11761.327084    230.289710
PR11 -13390.740807  -5934.564346 -20873.695667      1.370721
PR12 -24302.546636   5181.067636  -5778.419847     49.255938
PR14  -2720.465276  12338.242880  22160.179513     27.554656
PR15  15003.568988   5154.977339  19987.488911     72.491824
PR16  24267.692053  -5189.723742   5978.362277     32.216842
PR17  -1909.770617  24422.884761  -7165.747662    154.750481
PR18   5955.571921  14613.009873 -20001.990310    180.377387
PR19  10760.598810   -157.795340 -23119.870670   -304.431816
PR20  10620.508897 -20281.865779 -11277.847049   -124.189980
PR21   2755.893836 -24622.287220   6021.836610   -165.530955
PR22  -6583.046572 -13728.710642  20500.938330    -54.333329
PR24  -9707.517240  20992.630570  10797.307172    -86.908131
PR26 -18666.955710 -17331.164464   1198.857572   -132.105321
EOF
